{"type": "FeatureCollection", "features": [ {"type": "Feature", "properties": {"norad_id": 61186, "name": "BEIDOU-3 M25 (C47)", "group": "beidou", "lat": 3.2990464481010626, "lon": 125.85368240474676, "alt_km": 21536.56117917078, "timestamp": "2025-12-27T08:36:18.647905+00:00", "meta": {"OBJECT_NAME": "BEIDOU-3 M25 (C47)", "OBJECT_ID": "2024-168B", "EPOCH": "2025-12-27T04:57:33.161184", "MEAN_MOTION": 1.86229887, "ECCENTRICITY": 0.0005389, "INCLINATION": 54.629, "RA_OF_ASC_NODE": 308.2197, "ARG_OF_PERICENTER": 300.5492, "MEAN_ANOMALY": 133.5608, "EPHEMERIS_TYPE": 0, "CLASSIFICATION_TYPE": "U", "NORAD_CAT_ID": 61186, "ELEMENT_SET_NO": 999, "REV_AT_EPOCH": 858, "BSTAR": 0, "MEAN_MOTION_DOT": -6e-07, "MEAN_MOTION_DDOT": 0}, "tle": {"line1": "1 61186U 24168B   25361.20663381 -.00000060  00000+0  00000+0 0  9994", "line2": "2 61186  54.6290 308.2197 0005389 300.5492 133.5608  1.86229887  8586"}}, "geometry": {"type": "Point", "coordinates": [125.85368240474676, 3.2990464481010626]}}, {"type": "Feature", "properties": {"norad_id": 61187, "name": "BEIDOU-3 M27 (C49)", "group": "beidou", "lat": -38.05283458519316, "lon": -85.56970882728552, "alt_km": 21526.635267701244, "timestamp": "2025-12-27T08:36:18.647918+00:00", "meta": {"OBJECT_NAME": "BEIDOU-3 M27 (C49)", "OBJECT_ID": "2024-168C", "EPOCH": "2025-12-26T02:09:38.712960", "MEAN_MOTION": 1.86230112, "ECCENTRICITY": 0.00025351, "INCLINATION": 54.6256, "RA_OF_ASC_NODE": 308.2421, "ARG_OF_PERICENTER": 341.7609, "MEAN_ANOMALY": 198.677, "EPHEMERIS_TYPE": 0, "CLASSIFICATION_TYPE": "U", "NORAD_CAT_ID": 61187, "ELEMENT_SET_NO": 999, "REV_AT_EPOCH": 603, "BSTAR": 0, "MEAN_MOTION_DOT": -5.6e-07, "MEAN_MOTION_DDOT": 0}, "tle": {"line1": "1 61187U 24168C   25360.09003140 -.00000056  00000+0  00000+0 0  9997", "line2": "2 61187  54.6256 308.2421 0002535 341.7609 198.6770  1.86230112  6039"}}, "geometry": {"type": "Point", "coordinates": [-85.56970882728552, -38.05283458519316]}}]}